{"type": "FeatureCollection", "features": [ {"type": "Feature", "properties": {"norad_id": 40115, "name": "WORLDVIEW-3 (WV-3)", "group": "resource", "lat": 23.84140987066915, "lon": 45.64703308092912, "alt_km": 614.3066304667618, "timestamp": "2025-12-02T17:49:11.682780+00:00", "meta": {"OBJECT_NAME": "WORLDVIEW-3 (WV-3)", "OBJECT_ID": "2014-048A", "EPOCH": "2025-12-02T11:14:42.695808", "MEAN_MOTION": 14.85469209, "ECCENTRICITY": 0.0004043, "INCLINATION": 97.8627, "RA_OF_ASC_NODE": 48.8777, "ARG_OF_PERICENTER": 222.0493, "MEAN_ANOMALY": 138.0412, "EPHEMERIS_TYPE": 0, "CLASSIFICATION_TYPE": "U", "NORAD_CAT_ID": 40115, "ELEMENT_SET_NO": 999, "REV_AT_EPOCH": 61271, "BSTAR": 0.00019874, "MEAN_MOTION_DOT": 1.661e-05, "MEAN_MOTION_DDOT": 0}, "tle": {"line1": "1 40115U 14048A   25336.46854972  .00001661  00000+0  19874-3 0  9997", "line2": "2 40115  97.8627  48.8777 0004043 222.0493 138.0412 14.85469209612710"}}, "geometry": {"type": "Point", "coordinates": [45.64703308092912, 23.84140987066915]}}, {"type": "Feature", "properties": {"norad_id": 40118, "name": "GAOFEN-2", "group": "resource", "lat": 17.057229394951744, "lon": 33.40746151485029, "alt_km": 631.2728061901962, "timestamp": "2025-12-02T17:49:11.682790+00:00", "meta": {"OBJECT_NAME": "GAOFEN-2", "OBJECT_ID": "2014-049A", "EPOCH": "2025-12-02T12:52:34.711968", "MEAN_MOTION": 14.80579045, "ECCENTRICITY": 0.0008165, "INCLINATION": 98.0399, "RA_OF_ASC_NODE": 35.6867, "ARG_OF_PERICENTER": 142.3427, "MEAN_ANOMALY": 217.8358, "EPHEMERIS_TYPE": 0, "CLASSIFICATION_TYPE": "U", "NORAD_CAT_ID": 40118, "ELEMENT_SET_NO": 999, "REV_AT_EPOCH": 61013, "BSTAR": 0.00014633, "MEAN_MOTION_DOT": 1.069e-05, "MEAN_MOTION_DDOT": 0}, "tle": {"line1": "1 40118U 14049A   25336.53651287  .00001069  00000+0  14633-3 0  9993", "line2": "2 40118  98.0399  35.6867 0008165 142.3427 217.8358 14.80579045610130"}}, "geometry": {"type": "Point", "coordinates": [33.40746151485029, 17.057229394951744]}}, {"type": "Feature", "properties": {"norad_id": 40143, "name": "YAOGAN-21", "group": "resource", "lat": -56.11972596029983, "lon": -170.32655720144953, "alt_km": 509.3163864243934, "timestamp": "2025-12-02T17:49:11.682800+00:00", "meta": {"OBJECT_NAME": "YAOGAN-21", "OBJECT_ID": "2014-053A", "EPOCH": "2025-12-02T13:37:54.378336", "MEAN_MOTION": 15.23468865, "ECCENTRICITY": 0.0010297, "INCLINATION": 97.1778, "RA_OF_ASC_NODE": 20.3241, "ARG_OF_PERICENTER": 72.6159, "MEAN_ANOMALY": 287.6204, "EPHEMERIS_TYPE": 0, "CLASSIFICATION_TYPE": "U", "NORAD_CAT_ID": 40143, "ELEMENT_SET_NO": 999, "REV_AT_EPOCH": 62499, "BSTAR": 0.00038818, "MEAN_MOTION_DOT": 9.205e-05, "MEAN_MOTION_DDOT": 0}, "tle": {"line1": "1 40143U 14053A   25336.56799049  .00009205  00000+0  38818-3 0  9999", "line2": "2 40143  97.1778  20.3241 0010297  72.6159 287.6204 15.23468865624991"}}, "geometry": {"type": "Point", "coordinates": [-170.32655720144953, -56.11972596029983]}}, {"type": "Feature", "properties": {"norad_id": 40275, "name": "YAOGAN-22", "group": "resource", "lat": -12.8323192489878, "lon": 122.4990160258878, "alt_km": 1204.9082944795782, "timestamp": "2025-12-02T17:49:11.682810+00:00", "meta": {"OBJECT_NAME": "YAOGAN-22", "OBJECT_ID": "2014-063A", "EPOCH": "2025-12-02T08:45:35.847072", "MEAN_MOTION": 13.15522181, "ECCENTRICITY": 0.000587, "INCLINATION": 100.7417, "RA_OF_ASC_NODE": 119.6383, "ARG_OF_PERICENTER": 273.2794, "MEAN_ANOMALY": 86.7645, "EPHEMERIS_TYPE": 0, "CLASSIFICATION_TYPE": "U", "NORAD_CAT_ID": 40275, "ELEMENT_SET_NO": 999, "REV_AT_EPOCH": 53393, "BSTAR": 0.00016337, "MEAN_MOTION_DOT": 1.5e-07, "MEAN_MOTION_DDOT": 0}, "tle": {"line1": "1 40275U 14063A   25336.36499823  .00000015  00000+0  16337-3 0  9993", "line2": "2 40275 100.7417 119.6383 0005870 273.2794  86.7645 13.15522181533933"}}, "geometry": {"type": "Point", "coordinates": [122.4990160258878, -12.8323192489878]}}, {"type": "Feature", "properties": {"norad_id": 40298, "name": "ASNARO", "group": "resource", "lat": 75.07440601913663, "lon": 23.8979988602832, "alt_km": 496.32365054743514, "timestamp": "2025-12-02T17:49:11.682820+00:00", "meta": {"OBJECT_NAME": "ASNARO", "OBJECT_ID": "2014-070A", "EPOCH": "2025-12-02T11:09:42.509376", "MEAN_MOTION": 15.19809187, "ECCENTRICITY": 0.0007055, "INCLINATION": 97.3671, "RA_OF_ASC_NODE": 52.665, "ARG_OF_PERICENTER": 130.5918, "MEAN_ANOMALY": 229.5932, "EPHEMERIS_TYPE": 0, "CLASSIFICATION_TYPE": "U", "NORAD_CAT_ID": 40298, "ELEMENT_SET_NO": 999, "REV_AT_EPOCH": 61413, "BSTAR": 0.00061205, "MEAN_MOTION_DOT": 0.00013064, "MEAN_MOTION_DDOT": 0}, "tle": {"line1": "1 40298U 14070A   25336.46507534  .00013064  00000+0  61205-3 0  9998", "line2": "2 40298  97.3671  52.6650 0007055 130.5918 229.5932 15.19809187614132"}}, "geometry": {"type": "Point", "coordinates": [23.8979988602832, 75.07440601913663]}}, {"type": "Feature", "properties": {"norad_id": 40310, "name": "YAOGAN-24", "group": "resource", "lat": 19.281547548008323, "lon": -69.35348302146024, "alt_km": 631.8708004355058, "timestamp": "2025-12-02T17:49:11.682831+00:00", "meta": {"OBJECT_NAME": "YAOGAN-24", "OBJECT_ID": "2014-072A", "EPOCH": "2025-12-02T12:12:54.303840", "MEAN_MOTION": 14.76141226, "ECCENTRICITY": 0.0014197, "INCLINATION": 98.1217, "RA_OF_ASC_NODE": 107.5483, "ARG_OF_PERICENTER": 169.7691, "MEAN_ANOMALY": 190.381, "EPHEMERIS_TYPE": 0, "CLASSIFICATION_TYPE": "U", "NORAD_CAT_ID": 40310, "ELEMENT_SET_NO": 999, "REV_AT_EPOCH": 59470, "BSTAR": 0.0002078, "MEAN_MOTION_DOT": 1.385e-05, "MEAN_MOTION_DDOT": 0}, "tle": {"line1": "1 40310U 14072A   25336.50896185  .00001385  00000+0  20780-3 0  9999", "line2": "2 40310  98.1217 107.5483 0014197 169.7691 190.3810 14.76141226594708"}}, "geometry": {"type": "Point", "coordinates": [-69.35348302146024, 19.281547548008323]}}, {"type": "Feature", "properties": {"norad_id": 40336, "name": "CBERS 4", "group": "resource", "lat": -75.83569701891754, "lon": 70.60054733741546, "alt_km": 781.5517852240291, "timestamp": "2025-12-02T17:49:11.682840+00:00", "meta": {"OBJECT_NAME": "CBERS 4", "OBJECT_ID": "2014-079A", "EPOCH": "2025-12-02T11:29:38.190336", "MEAN_MOTION": 14.35527585, "ECCENTRICITY": 0.0001431, "INCLINATION": 98.3323, "RA_OF_ASC_NODE": 34.8462, "ARG_OF_PERICENTER": 127.7792, "MEAN_ANOMALY": 232.3524, "EPHEMERIS_TYPE": 0, "CLASSIFICATION_TYPE": "U", "NORAD_CAT_ID": 40336, "ELEMENT_SET_NO": 999, "REV_AT_EPOCH": 57573, "BSTAR": 9.2908e-05, "MEAN_MOTION_DOT": 2.25e-06, "MEAN_MOTION_DDOT": 0}, "tle": {"line1": "1 40336U 14079A   25336.47891424  .00000225  00000+0  92908-4 0  9995", "line2": "2 40336  98.3323  34.8462 0001431 127.7792 232.3524 14.35527585575730"}}, "geometry": {"type": "Point", "coordinates": [70.60054733741546, -75.83569701891754]}}, {"type": "Feature", "properties": {"norad_id": 40362, "name": "YAOGAN-26", "group": "resource", "lat": 62.56363981413355, "lon": 171.59680119987743, "alt_km": 441.2157277529959, "timestamp": "2025-12-02T17:49:11.682851+00:00", "meta": {"OBJECT_NAME": "YAOGAN-26", "OBJECT_ID": "2014-088A", "EPOCH": "2025-12-02T12:38:01.307328", "MEAN_MOTION": 15.38744484, "ECCENTRICITY": 0.0007396, "INCLINATION": 97.0641, "RA_OF_ASC_NODE": 337.569, "ARG_OF_PERICENTER": 57.2991, "MEAN_ANOMALY": 302.8967, "EPHEMERIS_TYPE": 0, "CLASSIFICATION_TYPE": "U", "NORAD_CAT_ID": 40362, "ELEMENT_SET_NO": 999, "REV_AT_EPOCH": 60737, "BSTAR": 0.00057344, "MEAN_MOTION_DOT": 0.00021935, "MEAN_MOTION_DDOT": 0}, "tle": {"line1": "1 40362U 14088A   25336.52640402  .00021935  00000+0  57344-3 0  9993", "line2": "2 40362  97.0641 337.5690 0007396  57.2991 302.8967 15.38744484607371"}}, "geometry": {"type": "Point", "coordinates": [171.59680119987743, 62.56363981413355]}}, {"type": "Feature", "properties": {"norad_id": 40376, "name": "SMAP", "group": "resource", "lat": -24.54591151836707, "lon": 157.86764419988333, "alt_km": 688.4445702813528, "timestamp": "2025-12-02T17:49:11.682861+00:00", "meta": {"OBJECT_NAME": "SMAP", "OBJECT_ID": "2015-003A", "EPOCH": "2025-12-02T11:57:51.150816", "MEAN_MOTION": 14.6332379, "ECCENTRICITY": 0.0001203, "INCLINATION": 98.129, "RA_OF_ASC_NODE": 341.3699, "ARG_OF_PERICENTER": 85.7767, "MEAN_ANOMALY": 274.3572, "EPHEMERIS_TYPE": 0, "CLASSIFICATION_TYPE": "U", "NORAD_CAT_ID": 40376, "ELEMENT_SET_NO": 999, "REV_AT_EPOCH": 57885, "BSTAR": 0.00016156, "MEAN_MOTION_DOT": 7.87e-06, "MEAN_MOTION_DDOT": 0}, "tle": {"line1": "1 40376U 15003A   25336.49850869  .00000787  00000+0  16156-3 0  9990", "line2": "2 40376  98.1290 341.3699 0001203  85.7767 274.3572 14.63323790578853"}}, "geometry": {"type": "Point", "coordinates": [157.86764419988333, -24.54591151836707]}}, {"type": "Feature", "properties": {"norad_id": 40536, "name": "KOMPSAT-3A", "group": "resource", "lat": -68.43525527486553, "lon": 110.5850554436949, "alt_km": 443.90379070642393, "timestamp": "2025-12-02T17:49:11.682871+00:00", "meta": {"OBJECT_NAME": "KOMPSAT-3A", "OBJECT_ID": "2015-014A", "EPOCH": "2025-12-02T12:04:23.381760", "MEAN_MOTION": 15.43377927, "ECCENTRICITY": 0.0003651, "INCLINATION": 97.6771, "RA_OF_ASC_NODE": 310.2898, "ARG_OF_PERICENTER": 148.8706, "MEAN_ANOMALY": 211.2757, "EPHEMERIS_TYPE": 0, "CLASSIFICATION_TYPE": "U", "NORAD_CAT_ID": 40536, "ELEMENT_SET_NO": 999, "REV_AT_EPOCH": 59137, "BSTAR": 0.00051281, "MEAN_MOTION_DOT": 0.00022838, "MEAN_MOTION_DDOT": 0}, "tle": {"line1": "1 40536U 15014A   25336.50304840  .00022838  00000+0  51281-3 0  9994", "line2": "2 40536  97.6771 310.2898 0003651 148.8706 211.2757 15.43377927591375"}}, "geometry": {"type": "Point", "coordinates": [110.5850554436949, -68.43525527486553]}}]}